{
  "type": "FeatureCollection",
  "features": [
    {
      "type": "Feature",
      "properties": {
        "norad_id": 41330,
        "name": "COSMOS 2514 (751)",
        "group": "glo-ops",
        "lat": 29.90623123143736,
        "lon": 123.89457013377981,
        "alt_km": 19117.596998997706,
        "timestamp": "2025-12-13T15:35:12.367607+00:00",
        "meta_object_name": "COSMOS 2514 (751)",
        "meta_object_id": "2016-008A",
        "meta_epoch": "2025-12-11T02:40:55.560288",
        "meta_mean_motion": 2.13102604,
        "meta_eccentricity": 0.0012161,
        "meta_inclination": 65.1347,
        "meta_ra_of_asc_node": 319.4596,
        "meta_arg_of_pericenter": 220.0573,
        "meta_mean_anomaly": 139.8518,
        "meta_ephemeris_type": 0,
        "meta_classification_type": "U",
        "meta_norad_cat_id": 41330,
        "meta_element_set_no": 999,
        "meta_rev_at_epoch": 7661,
        "meta_bstar": 0,
        "meta_mean_motion_dot": -5.2e-07,
        "meta_mean_motion_ddot": 0,
        "tle_line1": "1 41330U 16008A   25345.11175417 -.00000052  00000+0  00000+0 0  9998",
        "tle_line2": "2 41330  65.1347 319.4596 0012161 220.0573 139.8518  2.13102604 76610"
      },
      "geometry": {
        "type": "Point",
        "coordinates": [
          123.89457013377981,
          29.90623123143736
        ]
      }
    },
    {
      "type": "Feature",
      "properties": {
        "norad_id": 42939,
        "name": "COSMOS 2522 (752)",
        "group": "glo-ops",
        "lat": -64.05017023231714,
        "lon": 110.1332758897552,
        "alt_km": 19124.837447313894,
        "timestamp": "2025-12-13T15:35:12.367618+00:00",
        "meta_object_name": "COSMOS 2522 (752)",
        "meta_object_id": "2017-055A",
        "meta_epoch": "2025-12-10T22:48:12.074400",
        "meta_mean_motion": 2.1310181,
        "meta_eccentricity": 0.00064932,
        "meta_inclination": 64.076,
        "meta_ra_of_asc_node": 198.29,
        "meta_arg_of_pericenter": 225.3551,
        "meta_mean_anomaly": 134.6611,
        "meta_ephemeris_type": 0,
        "meta_classification_type": "U",
        "meta_norad_cat_id": 42939,
        "meta_element_set_no": 999,
        "meta_rev_at_epoch": 6396,
        "meta_bstar": 0,
        "meta_mean_motion_dot": 5.1e-07,
        "meta_mean_motion_ddot": 0,
        "tle_line1": "1 42939U 17055A   25344.95013975  .00000051  00000+0  00000+0 0  9996",
        "tle_line2": "2 42939  64.0760 198.2900 0006493 225.3551 134.6611  2.13101810 63969"
      },
      "geometry": {
        "type": "Point",
        "coordinates": [
          110.1332758897552,
          -64.05017023231714
        ]
      }
    },
    {
      "type": "Feature",
      "properties": {
        "norad_id": 43508,
        "name": "COSMOS 2527 (756)",
        "group": "glo-ops",
        "lat": -51.298476383758185,
        "lon": 45.42191578126754,
        "alt_km": 19130.499024561912,
        "timestamp": "2025-12-13T15:35:12.367642+00:00",
        "meta_object_name": "COSMOS 2527 (756)",
        "meta_object_id": "2018-053A",
        "meta_epoch": "2025-12-12T18:54:40.094784",
        "meta_mean_motion": 2.13102055,
        "meta_eccentricity": 0.00086164,
        "meta_inclination": 65.4727,
        "meta_ra_of_asc_node": 80.1298,
        "meta_arg_of_pericenter": 224.8519,
        "meta_mean_anomaly": 135.0923,
        "meta_ephemeris_type": 0,
        "meta_classification_type": "U",
        "meta_norad_cat_id": 43508,
        "meta_element_set_no": 999,
        "meta_rev_at_epoch": 5830,
        "meta_bstar": 0,
        "meta_mean_motion_dot": -4.1e-07,
        "meta_mean_motion_ddot": 0,
        "tle_line1": "1 43508U 18053A   25346.78796406 -.00000041  00000+0  00000+0 0  9998",
        "tle_line2": "2 43508  65.4727  80.1298 0008616 224.8519 135.0923  2.13102055 58301"
      },
      "geometry": {
        "type": "Point",
        "coordinates": [
          45.42191578126754,
          -51.298476383758185
        ]
      }
    },
    {
      "type": "Feature",
      "properties": {
        "norad_id": 43687,
        "name": "COSMOS 2529 (757)",
        "group": "glo-ops",
        "lat": -40.47001161429797,
        "lon": 43.12712812484599,
        "alt_km": 19118.72420480554,
        "timestamp": "2025-12-13T15:35:12.367656+00:00",
        "meta_object_name": "COSMOS 2529 (757)",
        "meta_object_id": "2018-086A",
        "meta_epoch": "2025-12-11T22:43:29.696736",
        "meta_mean_motion": 2.1310189,
        "meta_eccentricity": 0.00071924,
        "meta_inclination": 64.292,
        "meta_ra_of_asc_node": 198.9152,
        "meta_arg_of_pericenter": 254.1119,
        "meta_mean_anomaly": 105.8792,
        "meta_ephemeris_type": 0,
        "meta_classification_type": "U",
        "meta_norad_cat_id": 43687,
        "meta_element_set_no": 999,
        "meta_rev_at_epoch": 5529,
        "meta_bstar": 0,
        "meta_mean_motion_dot": 6.1e-07,
        "meta_mean_motion_ddot": 0,
        "tle_line1": "1 43687U 18086A   25345.94687149  .00000061  00000+0  00000+0 0  9993",
        "tle_line2": "2 43687  64.2920 198.9152 0007192 254.1119 105.8792  2.13101890 55298"
      },
      "geometry": {
        "type": "Point",
        "coordinates": [
          43.12712812484599,
          -40.47001161429797
        ]
      }
    },
    {
      "type": "Feature",
      "properties": {
        "norad_id": 44299,
        "name": "COSMOS 2534 (758)",
        "group": "glo-ops",
        "lat": 0.5418691839986755,
        "lon": -160.8746270094772,
        "alt_km": 19125.243869875074,
        "timestamp": "2025-12-13T15:35:12.367668+00:00",
        "meta_object_name": "COSMOS 2534 (758)",
        "meta_object_id": "2019-030A",
        "meta_epoch": "2025-12-10T14:34:24.563136",
        "meta_mean_motion": 2.13102261,
        "meta_eccentricity": 0.0008999,
        "meta_inclination": 64.3653,
        "meta_ra_of_asc_node": 198.9649,
        "meta_arg_of_pericenter": 283.4628,
        "meta_mean_anomaly": 263.2195,
        "meta_ephemeris_type": 0,
        "meta_classification_type": "U",
        "meta_norad_cat_id": 44299,
        "meta_element_set_no": 999,
        "meta_rev_at_epoch": 5090,
        "meta_bstar": 0,
        "meta_mean_motion_dot": 4.7e-07,
        "meta_mean_motion_ddot": 0,
        "tle_line1": "1 44299U 19030A   25344.60722874  .00000047  00000+0  00000+0 0  9994",
        "tle_line2": "2 44299  64.3653 198.9649 0008999 283.4628 263.2195  2.13102261 50901"
      },
      "geometry": {
        "type": "Point",
        "coordinates": [
          -160.8746270094772,
          0.5418691839986755
        ]
      }
    },
    {
      "type": "Feature",
      "properties": {
        "norad_id": 44850,
        "name": "COSMOS 2544 (759)",
        "group": "glo-ops",
        "lat": -15.025535025655019,
        "lon": 72.898525925115,
        "alt_km": 19134.918259270777,
        "timestamp": "2025-12-13T15:35:12.367679+00:00",
        "meta_object_name": "COSMOS 2544 (759)",
        "meta_object_id": "2019-088A",
        "meta_epoch": "2025-12-11T19:03:21.616416",
        "meta_mean_motion": 2.13101808,
        "meta_eccentricity": 0.00136914,
        "meta_inclination": 65.4596,
        "meta_ra_of_asc_node": 79.99,
        "meta_arg_of_pericenter": 249.2614,
        "meta_mean_anomaly": 110.6076,
        "meta_ephemeris_type": 0,
        "meta_classification_type": "U",
        "meta_norad_cat_id": 44850,
        "meta_element_set_no": 999,
        "meta_rev_at_epoch": 4672,
        "meta_bstar": 0,
        "meta_mean_motion_dot": -3.2e-07,
        "meta_mean_motion_ddot": 0,
        "tle_line1": "1 44850U 19088A   25345.79400019 -.00000032  00000+0  00000+0 0  9990",
        "tle_line2": "2 44850  65.4596  79.9900 0013691 249.2614 110.6076  2.13101808 46724"
      },
      "geometry": {
        "type": "Point",
        "coordinates": [
          72.898525925115,
          -15.025535025655019
        ]
      }
    },
    {
      "type": "Feature",
      "properties": {
        "norad_id": 45358,
        "name": "COSMOS 2545 (760)",
        "group": "glo-ops",
        "lat": -11.764664058253752,
        "lon": 144.63841051772994,
        "alt_km": 19114.91775690779,
        "timestamp": "2025-12-13T15:35:12.367689+00:00",
        "meta_object_name": "COSMOS 2545 (760)",
        "meta_object_id": "2020-018A",
        "meta_epoch": "2025-12-10T13:58:04.872576",
        "meta_mean_motion": 2.13102273,
        "meta_eccentricity": 0.00118432,
        "meta_inclination": 64.471,
        "meta_ra_of_asc_node": 319.0455,
        "meta_arg_of_pericenter": 248.8319,
        "meta_mean_anomaly": 111.0396,
        "meta_ephemeris_type": 0,
        "meta_classification_type": "U",
        "meta_norad_cat_id": 45358,
        "meta_element_set_no": 999,
        "meta_rev_at_epoch": 4464,
        "meta_bstar": 0,
        "meta_mean_motion_dot": -5.2e-07,
        "meta_mean_motion_ddot": 0,
        "tle_line1": "1 45358U 20018A   25344.58200084 -.00000052  00000+0  00000+0 0  9997",
        "tle_line2": "2 45358  64.4710 319.0455 0011843 248.8319 111.0396  2.13102273 44648"
      },
      "geometry": {
        "type": "Point",
        "coordinates": [
          144.63841051772994,
          -11.764664058253752
        ]
      }
    }
  ]
}